COMMENT,ORIGINATOR,NORAD_CAT_ID,OBJECT_NAME,OBJECT_TYPE,CLASSIFICATION_TYPE,INTLDES,EPOCH,EPOCH_MICROSECONDS,MEAN_MOTION,ECCENTRICITY,INCLINATION,RA_OF_ASC_NODE,ARG_OF_PERICENTER,MEAN_ANOMALY,EPHEMERIS_TYPE,ELEMENT_SET_NO,REV_AT_EPOCH,BSTAR,MEAN_MOTION_DOT,MEAN_MOTION_DDOT,FILE,TLE_LINE0,TLE_LINE1,TLE_LINE2,OBJECT_ID,OBJECT_NUMBER,SEMIMAJOR_AXIS,PERIOD,APOGEE,PERIGEE
"GENERATED VIA SPACETRACK.ORG API","JSPOC","22236","COSMOS 2221","PAYLOAD","U","92080A","2016-01-13 21:06:02","149920","14.87236173","0.0015552","82.5073","190.4766","287.1549","72.7965","0","999","22893","7.0421e-05","6.59e-06","0","1980270","0 COSMOS 2221","1 22236U 92080A   16013.87919155 +.00000659 +00000-0 +70421-4 0  9998","2 22236 082.5073 190.4766 0015552 287.1549 072.7965 14.87236173228931","1992-080A","22236","6984.712","96.823","617.440","595.715"
"GENERATED VIA SPACETRACK.ORG API","JSPOC","40420","COSMOS 2503","PAYLOAD","U","15009A","2016-01-13 21:06:11","188224","14.98595947","0.0010146","97.6766","334.6952","19.5116","340.6496","0","999","4812","3.2034e-05","3.26e-06","0","1979939","0 COSMOS 2503","1 40420U 15009A   16013.87929616  .00000326  00000-0  32034-4 0  9991","2 40420  97.6766 334.6952 0010146  19.5116 340.6496 14.98595947 48128","2015-009A","40420","6949.370","96.089","578.286","564.184"
"GENERATED VIA SPACETRACK.ORG API","JSPOC","18793","COSMOS 1914","PAYLOAD","U","88002F","2016-01-13 21:06:13","25088","12.66356949","0.0018668","82.6083","131.2824","71.3811","22.9915","0","999","29387","0.00011547","3.3e-07","0","1980270","0 COSMOS 1914","1 18793U 88002F   16013.87931742 +.00000033 +00000-0 +11547-3 0  9995","2 18793 082.6083 131.2824 0018668 071.3811 022.9915 12.66356949293876","1988-002F","18793","7774.952","113.712","1411.331","1382.303"
"GENERATED VIA SPACETRACK.ORG API","JSPOC","40119","BRITE-PL 2","PAYLOAD","U","14049B","2016-01-13 21:06:13","612608","14.83771457","0.0017366","97.9729","95.5808","350.3875","9.7004","0","999","7590","7.5588e-05","5.72e-06","0","1980270","0 BRITE-PL 2","1 40119U 14049B   16013.87932422 +.00000572 +00000-0 +75588-4 0  9992","2 40119 097.9729 095.5808 0017366 350.3875 009.7004 14.83771457075907","2014-049B","40119","6995.581","97.049","629.595","605.298"
"GENERATED VIA SPACETRACK.ORG API","JSPOC","6992","COSMOS 624","PAYLOAD","U","73104H","2016-01-13 21:06:15","685344","12.6122976","0.0086718","74.0302","274.7231","284.9169","203.622","0","999","93685","8.9652e-05","-1e-08","0","1980270","0 COSMOS 624","1  6992U 73104H   16013.87934821 -.00000001 +00000-0 +89652-4 0  9990","2  6992 074.0302 274.7231 0086718 284.9169 203.6220 12.61229760936851","1973-104H","6992","7796.009","114.174","1485.480","1350.269"
"GENERATED VIA SPACETRACK.ORG API","JSPOC","25398","WESTPAC","PAYLOAD","U","98043E","2016-01-13 21:06:16","193376","14.22806185","0.0002341","98.5588","321.5615","67.4999","292.6427","0","999","90951","1.1966e-05","-1.6e-07","0","1980270","0 WESTPAC","1 25398U 98043E   16013.87935409 -.00000016 +00000-0 +11966-4 0  9992","2 25398 098.5588 321.5615 0002341 067.4999 292.6427 14.22806185909512","1998-043E","25398","7194.015","101.208","817.564","814.195"
"GENERATED VIA SPACETRACK.ORG API","JSPOC","12109","COSMOS 1230","PAYLOAD","U","80102C","2016-01-13 21:06:17","135136","12.5786607","0.0040615","73.9939","62.5327","55.759","54.8234","0","999","60967","4.4865e-05","-9e-08","0","1980270","0 COSMOS 1230","1 12109U 80102C   16013.87936499 -.00000009 +00000-0 +44865-4 0  9991","2 12109 073.9939 062.5327 0040615 055.7590 054.8234 12.57866070609673","1980-102C","12109","7809.901","114.479","1463.486","1400.046"
"GENERATED VIA SPACETRACK.ORG API","JSPOC","9634","COSMOS 886","PAYLOAD","U","76126A","2016-01-13 21:06:22","738176","12.56103239","0.108599","65.8353","314.501","10.3037","351.8392","0","999","80195","5.3511e-05","2.4e-07","0","1980270","0 COSMOS 886","1  9634U 76126A   16013.87942984 +.00000024 +00000-0 +53511-4 0  9991","2  9634 065.8353 314.5010 1085990 010.3037 351.8392 12.56103239801950","1976-126A","9634","7817.207","114.640","2288.012","590.131"
"GENERATED VIA SPACETRACK.ORG API","JSPOC","11750","COSMOS 1171","PAYLOAD","U","80026A","2016-01-13 21:06:27","662112","13.73693218","0.0022738","65.842","134.3509","340.8326","155.6073","0","999","79482","1.7255e-05","-6.4e-07","0","1980097","0 COSMOS 1171","1 11750U 80026A   16013.87948683 -.00000064  00000-0  17255-4 0  9999","2 11750  65.8420 134.3509 0022738 340.8326 155.6073 13.73693218794824","1980-026A","11750","7364.478","104.826","1003.088","969.598"
"GENERATED VIA SPACETRACK.ORG API","JSPOC","11750","COSMOS 1171","PAYLOAD","U","80026A","2016-01-13 21:06:27","662112","13.73693218","0.0022738","65.842","134.3509","340.8326","155.6073","0","999","79457","1.7255e-05","-6.4e-07","0","1980270","0 COSMOS 1171","1 11750U 80026A   16013.87948683 -.00000064 +00000-0 +17255-4 0  9999","2 11750 065.8420 134.3509 0022738 340.8326 155.6073 13.73693218794576","1980-026A","11750","7364.478","104.826","1003.088","969.598"
"GENERATED VIA SPACETRACK.ORG API","JSPOC","6306","DELTA 1 R/B","ROCKET BODY","U","72097B","2016-01-13 21:06:30","938400","12.88382753","0.0270446","99.8361","98.9293","74.2053","56.2562","0","999","2598","1.0106e-05","-3.3e-07","0","1980270","0 DELTA 1 R/B","1  6306U 72097B   16013.87952475 -.00000033 +00000-0 +10106-4 0  9997","2  6306 099.8361 098.9293 0270446 074.2053 056.2562 12.88382753025984","1972-097B","6306","7686.086","111.768","1515.818","1100.083"
"GENERATED VIA SPACETRACK.ORG API","JSPOC","40956","FLOCK 2B 7","PAYLOAD","U","98067HH","2016-01-13 21:06:38","416320","15.64011108","0.0007027","51.6401","108.8131","6.6359","353.4728","0","999","1548","0.00044171","0.0004227","0","1980270","0 FLOCK 2B 7","1 40956U 98067HH  16013.87961130 +.00042270 +00000-0 +44171-3 0  9995","2 40956 051.6401 108.8131 0007027 006.6359 353.4728 15.64011108015487","1998-067HH","40956","6754.221","92.070","380.832","371.340"
"GENERATED VIA SPACETRACK.ORG API","JSPOC","10776","COSMOS 1000","PAYLOAD","U","78034A","2016-01-13 21:06:44","644032","13.75294869","0.003422","82.9447","290.4465","335.744","67.0946","0","999","89616","5.6054e-05","6.9e-07","0","1980270","0 COSMOS 1000","1 10776U 78034A   16013.87968338 +.00000069 +00000-0 +56054-4 0  9995","2 10776 082.9447 290.4465 0034220 335.7440 067.0946 13.75294869896160","1978-034A","10776","7358.759","104.704","1005.806","955.443"
"GENERATED VIA SPACETRACK.ORG API","JSPOC","801","OPS 4412 (TRANSIT 9)","PAYLOAD","U","64026A","2016-01-13 21:06:46","134432","14.14229098","0.0051017","90.5029","335.5107","57.6603","302.9508","0","999","64771","0.00016093","3.2e-06","0","1980270","0 OPS 4412 (TRANSIT 9)","1   801U 64026A   16013.87970063 +.00000320 +00000-0 +16093-3 0  9995","2   801 090.5029 335.5107 0051017 057.6603 302.9508 14.14229098647713","1964-026A","801","7223.072","101.822","881.787","808.087"
"GENERATED VIA SPACETRACK.ORG API","JSPOC","21965","DELTA 2 R/B(1)","ROCKET BODY","U","92027B","2016-01-13 21:06:50","181408","12.18114836","0.1377099","19.6792","294.7812","111.418","263.8432","0","999","5054","0.00015549","6.87e-06","0","1979923","0 DELTA 2 R/B(1)","1 21965U 92027B   16013.87974747  .00000687  00000-0  15549-3 0  9995","2 21965  19.6792 294.7812 1377099 111.4180 263.8432 12.18114836 50541","1992-027B","21965","7978.899","118.215","2699.538","501.991"
"GENERATED VIA SPACETRACK.ORG API","JSPOC","19196","SL-14 R/B","ROCKET BODY","U","88046B","2016-01-13 21:06:59","209344","12.41396144","0.0021335","73.5987","155.6497","232.0347","286.751","0","999","25183","1.9621e-06","-1.7e-07","0","1980270","0 SL-14 R/B","1 19196U 88046B   16013.87985196 -.00000017 +00000-0 +19621-5 0  9999","2 19196 073.5987 155.6497 0021335 232.0347 286.7510 12.41396144251832","1988-046B","19196","7878.827","115.998","1517.501","1483.882"
"GENERATED VIA SPACETRACK.ORG API","JSPOC","1589","SL-8 R/B","ROCKET BODY","U","65073F","2016-01-13 21:07:02","515008","12.33013472","0.0167306","56.0528","311.1249","78.8503","321.2761","0","999","26611","4.6891e-05","-8.6e-07","0","1980270","0 SL-8 R/B","1  1589U 65073F   16013.87989022 -.00000086 +00000-0 +46891-4 0  9997","2  1589 056.0528 311.1249 0167306 078.8503 321.2761 12.33013472266110","1965-073F","1589","7914.496","116.787","1668.775","1403.947"
"GENERATED VIA SPACETRACK.ORG API","JSPOC","36606","SL-24 R/B","ROCKET BODY","U","10030B","2016-01-13 21:07:17","311008","14.23779992","0.0437404","97.4536","99.9559","208.4143","149.2552","0","999","28889","0.000104","5.97e-06","0","1980270","0 SL-24 R/B","1 36606U 10030B   16013.88006147 +.00000597 +00000-0 +10400-3 0  9999","2 36606 097.4536 099.9559 0437404 208.4143 149.2552 14.23779992288893","2010-030B","36606","7190.734","101.139","1127.125","498.073"
"GENERATED VIA SPACETRACK.ORG API","JSPOC","25117","ORBCOMM FM 5","PAYLOAD","U","97084F","2016-01-13 21:07:19","818336","14.38153958","0.0003243","45.0156","176.1198","192.0981","167.979","0","999","94444","0.00010612","1.82e-06","0","1980270","0 ORBCOMM FM 5","1 25117U 97084F   16013.88009049 +.00000182 +00000-0 +10612-3 0  9997","2 25117 045.0156 176.1198 0003243 192.0981 167.9790 14.38153958944445","1997-084F","25117","7142.741","100.128","766.922","762.289"
"GENERATED VIA SPACETRACK.ORG API","JSPOC","10692","COSMOS 991","PAYLOAD","U","78022A","2016-01-13 21:07:27","499296","13.76266324","0.0037353","82.9876","175.4999","143.8374","9.3128","0","999","90185","2.4065e-05","3.9e-07","0","1979915","0 COSMOS 991","1 10692U 78022A   16013.88017939  .00000039  00000-0  24065-4 0  9996","2 10692  82.9876 175.4999 0037353 143.8374   9.3128 13.76266324901851","1978-022A","10692","7355.296","104.630","1004.635","949.687"
